{
  "norad_id": 55586,
  "name": "STARLINK-5767",
  "history": [
    {
      "epoch": "2026-03-28T12:28:41.177856Z",
      "apogee_km": 486.14064360590874,
      "perigee_km": 484.9271465916554,
      "latitude_deg": -3.832904673171788e-05,
      "longitude_deg": -114.34050861536547,
      "height_km": 485.4691765385773,
      "semi_major_axis_km": 6863.670895098781,
      "eccentricity": 8.84e-05,
      "inclination_deg": 42.9999,
      "raan_deg": 258.7703,
      "arg_perigee_deg": 254.8081,
      "mean_anomaly_deg": 105.2672,
      "mean_motion_rev_day": 15.26750549
    },
    {
      "epoch": "2026-03-29T04:10:47.498304Z",
      "apogee_km": 486.2294623882908,
      "perigee_km": 484.9088853204421,
      "latitude_deg": -6.455426503521292e-06,
      "longitude_deg": 5.801341885559835,
      "height_km": 484.9738332186538,
      "semi_major_axis_km": 6863.706173854366,
      "eccentricity": 9.62e-05,
      "inclination_deg": 43.0001,
      "raan_deg": 255.0833,
      "arg_perigee_deg": 304.2553,
      "mean_anomaly_deg": 55.8207,
      "mean_motion_rev_day": 15.26738778
    },
    {
      "epoch": "2026-03-30T03:43:53.408064Z",
      "apogee_km": 486.6021568934084,
      "perigee_km": 484.4428496136852,
      "latitude_deg": 4.934711056489571e-05,
      "longitude_deg": 6.021346441344618,
      "height_km": 485.24451063592863,
      "semi_major_axis_km": 6863.659503253547,
      "eccentricity": 0.0001573,
      "inclination_deg": 43.0013,
      "raan_deg": 249.5451,
      "arg_perigee_deg": 272.9234,
      "mean_anomaly_deg": 87.1438,
      "mean_motion_rev_day": 15.2675435
    },
    {
      "epoch": "2026-03-30T11:34:56.193312Z",
      "apogee_km": 486.61317828809297,
      "perigee_km": 484.4898276128197,
      "latitude_deg": -4.404314157004036e-06,
      "longitude_deg": -113.90813551925774,
      "height_km": 485.3369158017523,
      "semi_major_axis_km": 6863.688502950456,
      "eccentricity": 0.00015468,
      "inclination_deg": 43.0014,
      "raan_deg": 247.6997,
      "arg_perigee_deg": 269.5492,
      "mean_anomaly_deg": 90.5182,
      "mean_motion_rev_day": 15.26744674
    },
    {
      "epoch": "2026-03-30T21:00:11.810016Z",
      "apogee_km": 486.55500545217,
      "perigee_km": 484.61174893897714,
      "latitude_deg": -2.0704247781146604e-05,
      "longitude_deg": 102.17617103987155,
      "height_km": 485.30930026679454,
      "semi_major_axis_km": 6863.720377195573,
      "eccentricity": 0.00014156,
      "inclination_deg": 43.0014,
      "raan_deg": 245.486,
      "arg_perigee_deg": 273.0111,
      "mean_anomaly_deg": 87.0578,
      "mean_motion_rev_day": 15.26734039
    },
    {
      "epoch": "2026-03-31T11:08:04.123968Z",
      "apogee_km": 486.4910087406206,
      "perigee_km": 484.65153492376976,
      "latitude_deg": 1.3303683648027389e-05,
      "longitude_deg": -113.69301439224311,
      "height_km": 485.3250588686148,
      "semi_major_axis_km": 6863.708271832194,
      "eccentricity": 0.000134,
      "inclination_deg": 43.002,
      "raan_deg": 242.1651,
      "arg_perigee_deg": 271.4437,
      "mean_anomaly_deg": 88.6261,
      "mean_motion_rev_day": 15.26738078
    },
    {
      "epoch": "2026-04-01T20:06:26.127360Z",
      "apogee_km": 486.4659420023718,
      "perigee_km": 484.65941624682546,
      "latitude_deg": -3.567044336412911e-05,
      "longitude_deg": 102.61151046455659,
      "height_km": 485.3337130066784,
      "semi_major_axis_km": 6863.699679124598,
      "eccentricity": 0.0001316,
      "inclination_deg": 43.0023,
      "raan_deg": 234.4155,
      "arg_perigee_deg": 270.3769,
      "mean_anomaly_deg": 89.6931,
      "mean_motion_rev_day": 15.26740945
    },
    {
      "epoch": "2026-04-02T19:39:33.077376Z",
      "apogee_km": 486.44494316000873,
      "perigee_km": 484.64720728894645,
      "latitude_deg": 4.937238178139736e-05,
      "longitude_deg": 102.83010010388826,
      "height_km": 485.30536428997505,
      "semi_major_axis_km": 6863.683075224478,
      "eccentricity": 0.00013096,
      "inclination_deg": 43.0024,
      "raan_deg": 228.8802,
      "arg_perigee_deg": 271.1273,
      "mean_anomaly_deg": 88.9429,
      "mean_motion_rev_day": 15.26746485
    },
    {
      "epoch": "2026-04-03T16:04:15.392640Z",
      "apogee_km": 485.958723470575,
      "perigee_km": 485.1391993667812,
      "latitude_deg": 1.8932350595614065e-05,
      "longitude_deg": 151.01727316231867,
      "height_km": 485.3891100957303,
      "semi_major_axis_km": 6863.685961418678,
      "eccentricity": 5.97e-05,
      "inclination_deg": 42.9996,
      "raan_deg": 224.082,
      "arg_perigee_deg": 260.995,
      "mean_anomaly_deg": 99.0834,
      "mean_motion_rev_day": 15.26745522
    },
    {
      "epoch": "2026-04-04T15:37:22.655424Z",
      "apogee_km": 486.167355757113,
      "perigee_km": 484.94150046805316,
      "latitude_deg": 2.8131631112826003e-05,
      "longitude_deg": 151.23647374082134,
      "height_km": 485.39711341342917,
      "semi_major_axis_km": 6863.691428112583,
      "eccentricity": 8.93e-05,
      "inclination_deg": 43.0015,
      "raan_deg": 218.5487,
      "arg_perigee_deg": 263.8007,
      "mean_anomaly_deg": 96.2743,
      "mean_motion_rev_day": 15.26743698
    },
    {
      "epoch": "2026-04-05T15:10:30.499680Z",
      "apogee_km": 486.65668974214896,
      "perigee_km": 484.51932577473235,
      "latitude_deg": -4.585236193399818e-05,
      "longitude_deg": 151.44935535844598,
      "height_km": 485.11737870713654,
      "semi_major_axis_km": 6863.72500775844,
      "eccentricity": 0.0001557,
      "inclination_deg": 43.0001,
      "raan_deg": 213.0116,
      "arg_perigee_deg": 283.3942,
      "mean_anomaly_deg": 76.6735,
      "mean_motion_rev_day": 15.26732494
    },
    {
      "epoch": "2026-04-05T15:10:30.500544Z",
      "apogee_km": 486.65668974214896,
      "perigee_km": 484.51932577473235,
      "latitude_deg": -4.585236165386537e-05,
      "longitude_deg": 151.44935174859046,
      "height_km": 485.1173787071355,
      "semi_major_axis_km": 6863.72500775844,
      "eccentricity": 0.0001557,
      "inclination_deg": 43.0001,
      "raan_deg": 213.0116,
      "arg_perigee_deg": 283.3942,
      "mean_anomaly_deg": 76.6735,
      "mean_motion_rev_day": 15.26732494
    },
    {
      "epoch": "2026-04-06T00:35:45.392352Z",
      "apogee_km": 486.33705174714123,
      "perigee_km": 484.82936696595425,
      "latitude_deg": 2.2911116305849305e-05,
      "longitude_deg": 7.53607651815029,
      "height_km": 485.3115575077074,
      "semi_major_axis_km": 6863.7202093565475,
      "eccentricity": 0.00010983,
      "inclination_deg": 42.9996,
      "raan_deg": 210.7972,
      "arg_perigee_deg": 273.6613,
      "mean_anomaly_deg": 86.4113,
      "mean_motion_rev_day": 15.26734095
    },
    {
      "epoch": "2026-04-07T07:59:54.473568Z",
      "apogee_km": 486.36835724337925,
      "perigee_km": 484.7647215484358,
      "latitude_deg": 3.798779663383448e-05,
      "longitude_deg": -112.1711049770826,
      "height_km": 485.3285252540406,
      "semi_major_axis_km": 6863.703539395908,
      "eccentricity": 0.00011682,
      "inclination_deg": 43.0006,
      "raan_deg": 203.4175,
      "arg_perigee_deg": 271.0482,
      "mean_anomaly_deg": 89.0236,
      "mean_motion_rev_day": 15.26739657
    },
    {
      "epoch": "2026-04-08T13:49:51.916512Z",
      "apogee_km": 486.46745692386776,
      "perigee_km": 484.6533816959445,
      "latitude_deg": 7.4849209343225654e-06,
      "longitude_deg": 152.10433086562765,
      "height_km": 485.336602757072,
      "semi_major_axis_km": 6863.697419309906,
      "eccentricity": 0.00013215,
      "inclination_deg": 43.0025,
      "raan_deg": 196.4075,
      "arg_perigee_deg": 270.0514,
      "mean_anomaly_deg": 90.0186,
      "mean_motion_rev_day": 15.26741699
    },
    {
      "epoch": "2026-04-09T05:31:56.526240Z",
      "apogee_km": 486.44310088120073,
      "perigee_km": 484.6674636877742,
      "latitude_deg": -7.197157030610352e-06,
      "longitude_deg": -87.74982264589646,
      "height_km": 485.3404058351985,
      "semi_major_axis_km": 6863.692282284487,
      "eccentricity": 0.00012935,
      "inclination_deg": 43.0023,
      "raan_deg": 192.7174,
      "arg_perigee_deg": 269.4726,
      "mean_anomaly_deg": 90.5977,
      "mean_motion_rev_day": 15.26743413
    },
    {
      "epoch": "2026-04-10T06:39:16.172064Z",
      "apogee_km": 486.3551838453568,
      "perigee_km": 484.75443364172133,
      "latitude_deg": 1.842880506151098e-05,
      "longitude_deg": -111.51768478397119,
      "height_km": 485.3510498928019,
      "semi_major_axis_km": 6863.691808743539,
      "eccentricity": 0.00011661,
      "inclination_deg": 43.0018,
      "raan_deg": 186.8131,
      "arg_perigee_deg": 268.6069,
      "mean_anomaly_deg": 91.4649,
      "mean_motion_rev_day": 15.26743571
    },
    {
      "epoch": "2026-04-11T15:37:38.326656Z",
      "apogee_km": 486.3857168694285,
      "perigee_km": 484.7178404962078,
      "latitude_deg": -1.4486801872746932e-05,
      "longitude_deg": 104.78792094906404,
      "height_km": 485.2945173934494,
      "semi_major_axis_km": 6863.688778682817,
      "eccentricity": 0.0001215,
      "inclination_deg": 43.0028,
      "raan_deg": 179.0652,
      "arg_perigee_deg": 272.3509,
      "mean_anomaly_deg": 87.7203,
      "mean_motion_rev_day": 15.26744582
    },
    {
      "epoch": "2026-04-12T21:27:34.960032Z",
      "apogee_km": 486.46141144748526,
      "perigee_km": 484.6219455616456,
      "latitude_deg": 1.2435184669763648e-05,
      "longitude_deg": 9.06540320025832,
      "height_km": 485.338816174175,
      "semi_major_axis_km": 6863.678678504565,
      "eccentricity": 0.000134,
      "inclination_deg": 43.0028,
      "raan_deg": 172.0538,
      "arg_perigee_deg": 268.748,
      "mean_anomaly_deg": 91.3218,
      "mean_motion_rev_day": 15.26747952
    }
  ]
}